{
  "type": "FeatureCollection",
  "features": [
    {
      "type": "Feature",
      "properties": {
        "norad_id": 37836,
        "name": "EUTELSAT 16A",
        "group": "eutelsat",
        "lat": -0.07656746363047508,
        "lon": -104.2332226848765,
        "alt_km": 35762.92342342288,
        "timestamp": "2025-12-24T09:46:30.666835+00:00",
        "meta_object_name": "EUTELSAT 16A",
        "meta_object_id": "2011-057A",
        "meta_epoch": "2025-12-24T00:26:38.525280",
        "meta_mean_motion": 1.00270725,
        "meta_eccentricity": 0.0005848,
        "meta_inclination": 0.0568,
        "meta_ra_of_asc_node": 346.2607,
        "meta_arg_of_pericenter": 288.4668,
        "meta_mean_anomaly": 200.7187,
        "meta_ephemeris_type": 0,
        "meta_classification_type": "U",
        "meta_norad_cat_id": 37836,
        "meta_element_set_no": 999,
        "meta_rev_at_epoch": 557,
        "meta_bstar": 0,
        "meta_mean_motion_dot": 1.25e-06,
        "meta_mean_motion_ddot": 0,
        "tle_line1": "1 37836U 11057A   25358.01850145  .00000125  00000+0  00000+0 0  9994",
        "tle_line2": "2 37836   0.0568 346.2607 0005848 288.4668 200.7187  1.00270725  5579"
      },
      "geometry": {
        "type": "Point",
        "coordinates": [
          -104.2332226848765,
          -0.07656746363047508
        ]
      }
    },
    {
      "type": "Feature",
      "properties": {
        "norad_id": 38992,
        "name": "EUTELSAT 21B",
        "group": "eutelsat",
        "lat": -0.0865705115975069,
        "lon": -98.62848774613694,
        "alt_km": 35773.20038589215,
        "timestamp": "2025-12-24T09:46:30.666847+00:00",
        "meta_object_name": "EUTELSAT 21B",
        "meta_object_id": "2012-062B",
        "meta_epoch": "2025-12-24T00:26:38.525280",
        "meta_mean_motion": 1.00270638,
        "meta_eccentricity": 0.0003248,
        "meta_inclination": 0.0662,
        "meta_ra_of_asc_node": 347.3621,
        "meta_arg_of_pericenter": 290.8417,
        "meta_mean_anomaly": 202.8362,
        "meta_ephemeris_type": 0,
        "meta_classification_type": "U",
        "meta_norad_cat_id": 38992,
        "meta_element_set_no": 999,
        "meta_rev_at_epoch": 4807,
        "meta_bstar": 0,
        "meta_mean_motion_dot": 1.51e-06,
        "meta_mean_motion_ddot": 0,
        "tle_line1": "1 38992U 12062B   25358.01850145  .00000151  00000+0  00000+0 0  9994",
        "tle_line2": "2 38992   0.0662 347.3621 0003248 290.8417 202.8362  1.00270638 48070"
      },
      "geometry": {
        "type": "Point",
        "coordinates": [
          -98.62848774613694,
          -0.0865705115975069
        ]
      }
    },
    {
      "type": "Feature",
      "properties": {
        "norad_id": 39020,
        "name": "EUTELSAT 70B",
        "group": "eutelsat",
        "lat": -0.053383797542716764,
        "lon": -49.66288744669561,
        "alt_km": 35776.03256774675,
        "timestamp": "2025-12-24T09:46:30.666859+00:00",
        "meta_object_name": "EUTELSAT 70B",
        "meta_object_id": "2012-069A",
        "meta_epoch": "2025-12-24T01:56:51.561312",
        "meta_mean_motion": 1.00271801,
        "meta_eccentricity": 0.0004243,
        "meta_inclination": 0.0626,
        "meta_ra_of_asc_node": 345.1465,
        "meta_arg_of_pericenter": 269.0155,
        "meta_mean_anomaly": 298.4069,
        "meta_ephemeris_type": 0,
        "meta_classification_type": "U",
        "meta_norad_cat_id": 39020,
        "meta_element_set_no": 999,
        "meta_rev_at_epoch": 4775,
        "meta_bstar": 0,
        "meta_mean_motion_dot": -2.2e-07,
        "meta_mean_motion_ddot": 0,
        "tle_line1": "1 39020U 12069A   25358.08115233 -.00000022  00000+0  00000+0 0  9991",
        "tle_line2": "2 39020   0.0626 345.1465 0004243 269.0155 298.4069  1.00271801 47750"
      },
      "geometry": {
        "type": "Point",
        "coordinates": [
          -49.66288744669561,
          -0.053383797542716764
        ]
      }
    },
    {
      "type": "Feature",
      "properties": {
        "norad_id": 39122,
        "name": "EUTELSAT 117 WEST A",
        "group": "eutelsat",
        "lat": 0.01823687323007847,
        "lon": 122.99671156427982,
        "alt_km": 35796.380848254164,
        "timestamp": "2025-12-24T09:46:30.666888+00:00",
        "meta_object_name": "EUTELSAT 117 WEST A",
        "meta_object_id": "2013-012A",
        "meta_epoch": "2025-12-23T16:00:05.299200",
        "meta_mean_motion": 1.00270813,
        "meta_eccentricity": 0.00026851,
        "meta_inclination": 0.0226,
        "meta_ra_of_asc_node": 313.4585,
        "meta_arg_of_pericenter": 321.6945,
        "meta_mean_anomaly": 300.5313,
        "meta_ephemeris_type": 0,
        "meta_classification_type": "U",
        "meta_norad_cat_id": 39122,
        "meta_element_set_no": 999,
        "meta_rev_at_epoch": 4667,
        "meta_bstar": 0,
        "meta_mean_motion_dot": 8e-08,
        "meta_mean_motion_ddot": 0,
        "tle_line1": "1 39122U 13012A   25357.66672800  .00000008  00000+0  00000+0 0  9997",
        "tle_line2": "2 39122   0.0226 313.4585 0002685 321.6945 300.5313  1.00270813 46679"
      },
      "geometry": {
        "type": "Point",
        "coordinates": [
          122.99671156427982,
          0.01823687323007847
        ]
      }
    },
    {
      "type": "Feature",
      "properties": {
        "norad_id": 39163,
        "name": "EUTELSAT 7B",
        "group": "eutelsat",
        "lat": -0.07525982672985103,
        "lon": -113.25401236913157,
        "alt_km": 35781.33011358711,
        "timestamp": "2025-12-24T09:46:30.666905+00:00",
        "meta_object_name": "EUTELSAT 7B",
        "meta_object_id": "2013-022A",
        "meta_epoch": "2025-12-24T00:36:02.598048",
        "meta_mean_motion": 1.00271492,
        "meta_eccentricity": 0.0004542,
        "meta_inclination": 0.0653,
        "meta_ra_of_asc_node": 6.9519,
        "meta_arg_of_pericenter": 315.4949,
        "meta_mean_anomaly": 146.3626,
        "meta_ephemeris_type": 0,
        "meta_classification_type": "U",
        "meta_norad_cat_id": 39163,
        "meta_element_set_no": 999,
        "meta_rev_at_epoch": 4619,
        "meta_bstar": 0,
        "meta_mean_motion_dot": 6.9e-07,
        "meta_mean_motion_ddot": 0,
        "tle_line1": "1 39163U 13022A   25358.02503007  .00000069  00000+0  00000+0 0  9993",
        "tle_line2": "2 39163   0.0653   6.9519 0004542 315.4949 146.3626  1.00271492 46192"
      },
      "geometry": {
        "type": "Point",
        "coordinates": [
          -113.25401236913157,
          -0.07525982672985103
        ]
      }
    },
    {
      "type": "Feature",
      "properties": {
        "norad_id": 39612,
        "name": "EXPRESS-AT1",
        "group": "eutelsat",
        "lat": -0.010863539128585642,
        "lon": -64.19782326113649,
        "alt_km": 35790.07796968787,
        "timestamp": "2025-12-24T09:46:30.666918+00:00",
        "meta_object_name": "EXPRESS-AT1",
        "meta_object_id": "2014-010A",
        "meta_epoch": "2025-12-24T02:18:38.733696",
        "meta_mean_motion": 1.00271168,
        "meta_eccentricity": 9.11e-05,
        "meta_inclination": 0.0142,
        "meta_ra_of_asc_node": 288.2114,
        "meta_arg_of_pericenter": 190.815,
        "meta_mean_anomaly": 64.5094,
        "meta_ephemeris_type": 0,
        "meta_classification_type": "U",
        "meta_norad_cat_id": 39612,
        "meta_element_set_no": 999,
        "meta_rev_at_epoch": 4306,
        "meta_bstar": 0,
        "meta_mean_motion_dot": 1e-06,
        "meta_mean_motion_ddot": 0,
        "tle_line1": "1 39612U 14010A   25358.09628164  .00000100  00000+0  00000+0 0  9995",
        "tle_line2": "2 39612   0.0142 288.2114 0000911 190.8150  64.5094  1.00271168 43068"
      },
      "geometry": {
        "type": "Point",
        "coordinates": [
          -64.19782326113649,
          -0.010863539128585642
        ]
      }
    },
    {
      "type": "Feature",
      "properties": {
        "norad_id": 39613,
        "name": "EXPRESS-AT2",
        "group": "eutelsat",
        "lat": 0.01753046173705906,
        "lon": 19.685537663686368,
        "alt_km": 35786.38594351149,
        "timestamp": "2025-12-24T09:46:30.666931+00:00",
        "meta_object_name": "EXPRESS-AT2",
        "meta_object_id": "2014-010B",
        "meta_epoch": "2025-12-24T05:14:10.338144",
        "meta_mean_motion": 1.00273009,
        "meta_eccentricity": 0.0001526,
        "meta_inclination": 0.0153,
        "meta_ra_of_asc_node": 314.0505,
        "meta_arg_of_pericenter": 330.1441,
        "meta_mean_anomaly": 27.2081,
        "meta_ephemeris_type": 0,
        "meta_classification_type": "U",
        "meta_norad_cat_id": 39613,
        "meta_element_set_no": 999,
        "meta_rev_at_epoch": 4274,
        "meta_bstar": 0,
        "meta_mean_motion_dot": -2.6e-06,
        "meta_mean_motion_ddot": 0,
        "tle_line1": "1 39613U 14010B   25358.21817521 -.00000260  00000+0  00000+0 0  9995",
        "tle_line2": "2 39613   0.0153 314.0505 0001526 330.1441  27.2081  1.00273009 42740"
      },
      "geometry": {
        "type": "Point",
        "coordinates": [
          19.685537663686368,
          0.01753046173705906
        ]
      }
    }
  ]
}